[{"id":"48464","name":"STARLINK-2686","tle1":"1 48464U 21040AN  26175.37394079  .00000971  00000+0  43044-4 0  9991","tle2":"2 48464  53.1614  54.8549 0001248  98.3500 261.7643 15.31701549282842"},{"id":"48465","name":"STARLINK-2681","tle1":"1 48465U 21040AP  26176.09985425  .00131190  00000+0  90851-3 0  9998","tle2":"2 48465  53.1392  36.1836 0001598 228.5444 131.5438 15.73608765283175"},{"id":"48466","name":"STARLINK-2687","tle1":"1 48466U 21040AQ  26175.36426723  .00003360  00000+0  11996-3 0  9999","tle2":"2 48466  53.1601  54.8242 0001176  98.4209 261.6926 15.31707698282852"},{"id":"48467","name":"STARLINK-2659","tle1":"1 48467U 21040AR  26175.96550075 -.00000150  00000+0  69205-5 0  9997","tle2":"2 48467  53.1572  51.9080 0001112  99.7197 260.3930 15.31692808282945"},{"id":"48468","name":"STARLINK-2685","tle1":"1 48468U 21040AS  26175.91892240  .00001672  00000+0  65588-4 0  9994","tle2":"2 48468  53.1594  52.5010 0001249  95.3096 264.8048 15.31721905282930"},{"id":"48469","name":"STARLINK-2661","tle1":"1 48469U 21040AT  26175.97948495  .00005979  00000+0  20424-3 0  9998","tle2":"2 48469  53.1603  52.0287 0001318  86.6862 273.4291 15.31707079282947"},{"id":"48470","name":"STARLINK-2675","tle1":"1 48470U 21040AU  26175.37358158  .00002579  00000+0  94826-4 0  9996","tle2":"2 48470  53.1600  54.7102 0001129  94.0472 266.0659 15.31706039282841"},{"id":"48471","name":"STARLINK-2684","tle1":"1 48471U 21040AV  26175.95617383  .00019093  00000+0  62454-3 0  9999","tle2":"2 48471  53.1602  52.0067 0001063 113.6280 246.4833 15.31746244282935"},{"id":"48472","name":"STARLINK-2722","tle1":"1 48472U 21040AW  26176.00290923  .00019163  00000+0  10961-2 0  9997","tle2":"2 48472  53.0589  66.7711 0002554  78.6522 281.4757 15.12696090282703"},{"id":"48473","name":"STARLINK-2658","tle1":"1 48473U 21040AX  26175.97015188  .00008073  00000+0  27149-3 0  9996","tle2":"2 48473  53.1568  51.8971 0001063  84.1699 275.9423 15.31715196282939"},{"id":"48474","name":"STARLINK-2697","tle1":"1 48474U 21040AY  26175.94227073  .00002775  00000+0  10112-3 0  9997","tle2":"2 48474  53.1608  52.7774 0000959  89.0659 271.0452 15.31715381282912"},{"id":"48478","name":"STARLINK-2728","tle1":"1 48478U 21040BC  26174.94946873  .00001112  00000+0  47600-4 0  9993","tle2":"2 48478  53.1607  56.7813 0001916  93.0397 267.0824 15.31703541282778"},{"id":"48479","name":"STARLINK-2755","tle1":"1 48479U 21040BD  26174.96814462  .00023048  00000+0  75209-3 0  9991","tle2":"2 48479  53.1587  56.9470 0000973  77.4743 282.6368 15.31703588282777"},{"id":"48481","name":"STARLINK-2706","tle1":"1 48481U 21040BF  26176.10164766  .00012099  00000+0  40069-3 0  9997","tle2":"2 48481  53.1599  53.7733 0001178  97.5479 262.5657 15.31725530282923"},{"id":"48482","name":"STARLINK-2525","tle1":"1 48482U 21040BG  26175.94321567  .00003902  00000+0  13729-3 0  9999","tle2":"2 48482  53.1618  54.9270 0001264  89.9216 270.1931 15.31737974282896"},{"id":"48483","name":"STARLINK-2531","tle1":"1 48483U 21040BH  26176.08774499  .00013410  00000+0  44274-3 0  9996","tle2":"2 48483  53.1586  54.4339 0001108  93.0691 267.0437 15.31726975282910"},{"id":"48485","name":"STARLINK-2500","tle1":"1 48485U 21040BK  26175.92922716 -.00000977  00000+0 -19697-4 0  9995","tle2":"2 48485  53.1612  54.8147 0001047 100.5659 259.5461 15.31730349282893"},{"id":"48487","name":"STARLINK-2494","tle1":"1 48487U 21040BM  26175.37931480  .00001629  00000+0  64258-4 0  9990","tle2":"2 48487  53.1597  57.6799 0001251  98.6246 261.4898 15.31699867282814"},{"id":"48553","name":"STARLINK-2063","tle1":"1 48553U 21041A   26175.76305473 -.00002449  00000+0 -67120-4 0  9999","tle2":"2 48553  53.1595 348.6622 0001378 114.9717 245.1427 15.31728558281680"},{"id":"48554","name":"STARLINK-2139","tle1":"1 48554U 21041B   26175.95413866  .00004743  00000+0  16435-3 0  9996","tle2":"2 48554  53.1594 347.6732 0001037  73.2851 286.8264 15.31732080281719"},{"id":"48555","name":"STARLINK-2145","tle1":"1 48555U 21041C   26175.24670088  .00011975  00000+0  39657-3 0  9996","tle2":"2 48555  53.1616  13.2104 0000447 119.5060 240.5986 15.31737200281272"},{"id":"48556","name":"STARLINK-2151","tle1":"1 48556U 21041D   26176.21926156  .00001972  00000+0  75276-4 0  9999","tle2":"2 48556  53.1615   2.1773 0000872 108.1681 251.9416 15.31706422281520"},{"id":"48557","name":"STARLINK-2155","tle1":"1 48557U 21041E   26176.18719798  .00002181  00000+0  81991-4 0  9992","tle2":"2 48557  53.1603 346.7408 0000444  87.6453 272.4599 15.31706621281748"},{"id":"48558","name":"STARLINK-2166","tle1":"1 48558U 21041F   26176.18253699  .00000180  00000+0  17574-4 0  9999","tle2":"2 48558  53.1604 346.7507 0001196  93.1375 266.9763 15.31702820280882"},{"id":"48562","name":"STARLINK-2187","tle1":"1 48562U 21041K   26176.25002315  .01227502  00000+0  12512-1 0  9993","tle2":"2 48562  53.1540 337.0240 0001433  85.1519 118.6226 15.61690321  5852"},{"id":"48563","name":"STARLINK-2188","tle1":"1 48563U 21041L   26175.90753524  .00002505  00000+0  92427-4 0  9999","tle2":"2 48563  53.1585 347.9109 0001062  80.0201 280.0921 15.31712062281706"},{"id":"48564","name":"STARLINK-2190","tle1":"1 48564U 21041M   26174.78896644 -.00000358  00000+0  24618-6 0  9990","tle2":"2 48564  53.1613 353.1007 0001538 103.2574 256.8599 15.31702015281534"},{"id":"48566","name":"STARLINK-2214","tle1":"1 48566U 21041P   26176.02504611  .00005593  00000+0  19173-3 0  9993","tle2":"2 48566  53.1600   9.5483 0001098  94.8084 265.3043 15.31723268281390"},{"id":"48568","name":"STARLINK-2217","tle1":"1 48568U 21041R   26176.17791105  .00003663  00000+0  12967-3 0  9997","tle2":"2 48568  53.1594 347.0709 0000707  83.2970 276.8111 15.31713247281734"},{"id":"48569","name":"STARLINK-2219","tle1":"1 48569U 21041S   26175.90287278  .00003345  00000+0  11947-3 0  9993","tle2":"2 48569  53.1591 347.9232 0001534  89.4393 270.6785 15.31713584281708"}]