OBJECT_NAME,OBJECT_ID,EPOCH,MEAN_MOTION,ECCENTRICITY,INCLINATION,RA_OF_ASC_NODE,ARG_OF_PERICENTER,MEAN_ANOMALY,EPHEMERIS_TYPE,CLASSIFICATION_TYPE,NORAD_CAT_ID,ELEMENT_SET_NO,REV_AT_EPOCH,BSTAR,MEAN_MOTION_DOT,MEAN_MOTION_DDOT
STARLINK-2686,2021-040AN,2026-06-24T08:58:28.484256,15.31701549,.00012482,53.1614,54.8549,98.3500,261.7643,0,U,48464,999,28284,.43043501E-4,.971E-5,0
STARLINK-2681,2021-040AP,2026-06-25T02:23:47.407200,15.73608765,.00015985,53.1392,36.1836,228.5444,131.5438,0,U,48465,999,28317,.90851279E-3,.13119E-2,0
STARLINK-2687,2021-040AQ,2026-06-24T08:44:32.688672,15.31707698,.0001176,53.1601,54.8242,98.4209,261.6926,0,U,48466,999,28285,.11995852E-3,.336E-4,0
STARLINK-2659,2021-040AR,2026-06-24T23:10:19.264800,15.31692808,.00011122,53.1572,51.9080,99.7197,260.3930,0,U,48467,999,28294,.6920519E-5,-.15E-5,0
STARLINK-2685,2021-040AS,2026-06-24T22:03:14.895360,15.31721905,.00012495,53.1594,52.5010,95.3096,264.8048,0,U,48468,999,28293,.65587827E-4,.1672E-4,0
STARLINK-2661,2021-040AT,2026-06-24T23:30:27.499680,15.31707079,.00013183,53.1603,52.0287,86.6862,273.4291,0,U,48469,999,28294,.20423536E-3,.5979E-4,0
STARLINK-2675,2021-040AU,2026-06-24T08:57:57.448512,15.31706039,.00011295,53.1600,54.7102,94.0472,266.0659,0,U,48470,999,28284,.94825929E-4,.2579E-4,0
STARLINK-2684,2021-040AV,2026-06-24T22:56:53.418912,15.31746244,.00010636,53.1602,52.0067,113.6280,246.4833,0,U,48471,999,28293,.62454E-3,.19093E-3,0
STARLINK-2722,2021-040AW,2026-06-25T00:04:11.357472,15.12696090,.00025548,53.0589,66.7711,78.6522,281.4757,0,U,48472,999,28270,.1096085E-2,.19163E-3,0
STARLINK-2658,2021-040AX,2026-06-24T23:17:01.122432,15.31715196,.00010631,53.1568,51.8971,84.1699,275.9423,0,U,48473,999,28293,.27149173E-3,.8073E-4,0
STARLINK-2697,2021-040AY,2026-06-24T22:36:52.191072,15.31715381,.00009593,53.1608,52.7774,89.0659,271.0452,0,U,48474,999,28291,.10111634E-3,.2775E-4,0
STARLINK-2728,2021-040BC,2026-06-23T22:47:14.098272,15.31703541,.0001916,53.1607,56.7813,93.0397,267.0824,0,U,48478,999,28277,.47599994E-4,.1112E-4,0
STARLINK-2755,2021-040BD,2026-06-23T23:14:07.695168,15.31703588,.00009735,53.1587,56.9470,77.4743,282.6368,0,U,48479,999,28277,.75209027E-3,.23048E-3,0
STARLINK-2706,2021-040BF,2026-06-25T02:26:22.357824,15.31725530,.00011785,53.1599,53.7733,97.5479,262.5657,0,U,48481,999,28292,.40069312E-3,.12099E-3,0
STARLINK-2525,2021-040BG,2026-06-24T22:38:13.833888,15.31737974,.00012645,53.1618,54.9270,89.9216,270.1931,0,U,48482,999,28289,.13729079E-3,.3902E-4,0
STARLINK-2531,2021-040BH,2026-06-25T02:06:21.167136,15.31726975,.00011081,53.1586,54.4339,93.0691,267.0437,0,U,48483,999,28291,.44274483E-3,.1341E-3,0
STARLINK-2500,2021-040BK,2026-06-24T22:18:05.226624,15.31730349,.00010473,53.1612,54.8147,100.5659,259.5461,0,U,48485,999,28289,-.19696905E-4,-.977E-5,0
STARLINK-2494,2021-040BM,2026-06-24T09:06:12.798720,15.31699867,.0001251,53.1597,57.6799,98.6246,261.4898,0,U,48487,999,28281,.64257717E-4,.1629E-4,0
STARLINK-2063,2021-041A,2026-06-24T18:18:47.928672,15.31728558,.00013782,53.1595,348.6622,114.9717,245.1427,0,U,48553,999,28168,-.67119635E-4,-.2449E-4,0
STARLINK-2139,2021-041B,2026-06-24T22:53:57.580224,15.31732080,.00010377,53.1594,347.6732,73.2851,286.8264,0,U,48554,999,28171,.16435236E-3,.4743E-4,0
STARLINK-2145,2021-041C,2026-06-24T05:55:14.956032,15.31737200,.00004475,53.1616,13.2104,119.5060,240.5986,0,U,48555,999,28127,.39657271E-3,.11975E-3,0
STARLINK-2151,2021-041D,2026-06-25T05:15:44.198784,15.31706422,.00008727,53.1615,2.1773,108.1681,251.9416,0,U,48556,999,28152,.75275766E-4,.1972E-4,0
STARLINK-2155,2021-041E,2026-06-25T04:29:33.905472,15.31706621,.00004442,53.1603,346.7408,87.6453,272.4599,0,U,48557,999,28174,.81991E-4,.2181E-4,0
STARLINK-2166,2021-041F,2026-06-25T04:22:51.195936,15.31702820,.00011961,53.1604,346.7507,93.1375,266.9763,0,U,48558,999,28088,.17574133E-4,.18E-5,0
STARLINK-2187,2021-041K,2026-06-25T06:00:02.000160,15.61690321,.00014335,53.1540,337.0240,85.1519,118.6226,0,U,48562,999,585,.12511796E-1,.1227502E-1,0
STARLINK-2188,2021-041L,2026-06-24T21:46:51.044736,15.31712062,.00010626,53.1585,347.9109,80.0201,280.0921,0,U,48563,999,28170,.92427305E-4,.2505E-4,0
STARLINK-2190,2021-041M,2026-06-23T18:56:06.700416,15.31702015,.00015388,53.1613,353.1007,103.2574,256.8599,0,U,48564,999,28153,.246183E-6,-.358E-5,0
STARLINK-2214,2021-041P,2026-06-25T00:36:03.983904,15.31723268,.00010986,53.1600,9.5483,94.8084,265.3043,0,U,48566,999,28139,.19172853E-3,.5593E-4,0
STARLINK-2217,2021-041R,2026-06-25T04:16:11.514720,15.31713247,.00007071,53.1594,347.0709,83.2970,276.8111,0,U,48568,999,28173,.12967251E-3,.3663E-4,0
STARLINK-2219,2021-041S,2026-06-24T21:40:08.208192,15.31713584,.00015348,53.1591,347.9232,89.4393,270.6785,0,U,48569,999,28170,.11947376E-3,.3345E-4,0
